{
  "version": 1,
  "fetchedAt": "2026-06-21T12:32:46.387Z",
  "source": "celestrak-gp",
  "counts": {
    "station": 24,
    "satellite": 520,
    "debris": 250
  },
  "objects": [
    {
      "id": "43783",
      "name": "KAZSTSAT",
      "noradId": 43783,
      "line1": "1 43783U 18099AB  26171.03293079  .00001425  00000+0  11946-3 0  9997",
      "line2": "2 43783  97.4272 202.8318 0008602  62.2449 297.9646 14.99874388411735",
      "category": "satellite"
    },
    {
      "id": "43831",
      "name": "SAUDISAT 5A",
      "noradId": 43831,
      "line1": "1 43831U 18102A   26172.22486528  .00004359  00000+0  16160-3 0  9993",
      "line2": "2 43831  97.3063 233.7282 0011191 116.7520 243.4866 15.28082744416297",
      "category": "satellite"
    },
    {
      "id": "43833",
      "name": "SAUDISAT 5B",
      "noradId": 43833,
      "line1": "1 43833U 18102C   26172.17756090  .00004247  00000+0  15628-3 0  9997",
      "line2": "2 43833  97.3171 236.7587 0011882 118.9332 241.3101 15.28337228416404",
      "category": "satellite"
    },
    {
      "id": "44622",
      "name": "GAOFEN-10R",
      "noradId": 44622,
      "line1": "1 44622U 19066A   26172.20194247  .00000812  00000+0  10651-3 0  9993",
      "line2": "2 44622  98.0503 125.8105 0006885 116.9192 243.2725 14.83067895362976",
      "category": "satellite"
    },
    {
      "id": "44804",
      "name": "CARTOSAT-3",
      "noradId": 44804,
      "line1": "1 44804U 19081A   26172.17493039  .00003769  00000+0  18136-3 0  9999",
      "line2": "2 44804  97.4300 233.9780 0013546 136.0390 224.1925 15.19305773364074",
      "category": "satellite"
    },
    {
      "id": "44819",
      "name": "GAOFEN-12 01",
      "noradId": 44819,
      "line1": "1 44819U 19082A   26172.20257551  .00000261  00000+0  40772-4 0  9993",
      "line2": "2 44819  97.8101 178.4761 0002143  65.9936 294.1501 14.80461093354680",
      "category": "satellite"
    },
    {
      "id": "44873",
      "name": "CSG-1",
      "noradId": 44873,
      "line1": "1 44873U 19092A   26172.16949192  .00000277  00000+0  41312-4 0  9996",
      "line2": "2 44873  97.8890 355.7142 0001452  89.5535 270.5845 14.82155772352062",
      "category": "satellite"
    },
    {
      "id": "46277",
      "name": "NEMO-HD",
      "noradId": 46277,
      "line1": "1 46277U 20061F   26172.14631083  .00008929  00000+0  19341-3 0  9997",
      "line2": "2 46277  97.1915 234.0595 0002114  78.3213 281.8273 15.44662674322597",
      "category": "satellite"
    },
    {
      "id": "46984",
      "name": "SENTINEL-6A",
      "noradId": 46984,
      "line1": "1 46984U 20086A   26171.28659686 -.00000041  00000+0  86498-4 0  9998",
      "line2": "2 46984  66.0398 128.6148 0007932 270.1789  89.8317 12.80930002260728",
      "category": "satellite"
    },
    {
      "id": "47932",
      "name": "CAS500-1",
      "noradId": 47932,
      "line1": "1 47932U 21022A   26172.21001531  .00004792  00000+0  22448-3 0  9997",
      "line2": "2 47932  97.3894  67.3818 0003224 278.9562  81.1308 15.20170489291370",
      "category": "satellite"
    },
    {
      "id": "48079",
      "name": "GAOFEN-12 02",
      "noradId": 48079,
      "line1": "1 48079U 21026A   26172.21406447  .00000238  00000+0  38229-4 0  9995",
      "line2": "2 48079  97.9922 170.3782 0003999 205.4306 154.6709 14.80298644282354",
      "category": "satellite"
    },
    {
      "id": "48268",
      "name": "PLEIADES NEO 3",
      "noradId": 48268,
      "line1": "1 48268U 21034A   26172.17003076  .00001010  00000+0  13490-3 0  9991",
      "line2": "2 48268  97.8926 246.8795 0001361  92.8090 267.3278 14.81672808278244",
      "category": "satellite"
    },
    {
      "id": "49070",
      "name": "PLEIADES NEO 4",
      "noradId": 49070,
      "line1": "1 49070U 21073E   26172.20378237  .00000199  00000+0  31910-4 0  9999",
      "line2": "2 49070  97.8929 246.9091 0001336  88.5035 271.6331 14.81668144261969",
      "category": "satellite"
    },
    {
      "id": "49260",
      "name": "LANDSAT 9",
      "noradId": 49260,
      "line1": "1 49260U 21088A   26171.42401958  .00000235  00000+0  62312-4 0  9997",
      "line2": "2 49260  98.2280 241.5622 0001329  85.1905 274.9445 14.57098947251475",
      "category": "satellite"
    },
    {
      "id": "51444",
      "name": "CSG-2",
      "noradId": 51444,
      "line1": "1 51444U 22008A   26172.20322194  .00000466  00000+0  65131-4 0  9996",
      "line2": "2 51444  97.8889 355.7420 0001487  89.8329 270.3055 14.82158488237186",
      "category": "satellite"
    },
    {
      "id": "52912",
      "name": "GAOFEN-12 03",
      "noradId": 52912,
      "line1": "1 52912U 22069A   26172.17708965  .00000785  00000+0  11037-3 0  9993",
      "line2": "2 52912  97.8270  59.9462 0002192 100.2220 259.9240 14.80039682215202",
      "category": "satellite"
    },
    {
      "id": "54754",
      "name": "SWOT",
      "noradId": 54754,
      "line1": "1 54754U 22173A   26171.41805959  .00000075  00000+0  52339-4 0  9995",
      "line2": "2 54754  77.6105  30.9486 0000286  91.4251 268.6933 14.00169969179606",
      "category": "satellite"
    },
    {
      "id": "57654",
      "name": "GAOFEN-12 04",
      "noradId": 57654,
      "line1": "1 57654U 23123A   26172.19323712  .00000698  00000+0  98615-4 0  9999",
      "line2": "2 57654  97.9120  90.1536 0001784  81.7499 278.3915 14.80234993153220",
      "category": "satellite"
    },
    {
      "id": "59065",
      "name": "PARS 1",
      "noradId": 59065,
      "line1": "1 59065U 24039Q   26172.19864016  .00009369  00000+0  19486-3 0  9993",
      "line2": "2 59065  97.4828 153.2446 0011527  99.7581 260.4970 15.45796245129261",
      "category": "satellite"
    },
    {
      "id": "59371",
      "name": "RESURS-P 4",
      "noradId": 59371,
      "line1": "1 59371U 24061A   26172.18179060  .00002363  00000+0  78569-4 0  9990",
      "line2": "2 59371  97.2751 120.0107 0002467 121.9089 238.2394 15.32150166124376",
      "category": "satellite"
    },
    {
      "id": "59625",
      "name": "LEGION 1",
      "noradId": 59625,
      "line1": "1 59625U 24081A   26171.45980492  .00002623  00000+0  13730-3 0  9999",
      "line2": "2 59625  97.5015 249.2820 0009187   6.7145 353.4210 15.16685063118033",
      "category": "satellite"
    },
    {
      "id": "59626",
      "name": "LEGION 2",
      "noradId": 59626,
      "line1": "1 59626U 24081B   26171.48983050  .00002864  00000+0  14962-3 0  9991",
      "line2": "2 59626  97.5015 249.4091 0010476 331.4775  28.5884 15.16663670118044",
      "category": "satellite"
    },
    {
      "id": "60182",
      "name": "ALOS-4 (DAICHI-4)",
      "noradId": 60182,
      "line1": "1 60182U 24123A   26172.21648957  .00001001  00000+0  14090-3 0  9997",
      "line2": "2 60182  97.9248 269.3339 0001631  96.5969 263.5428 14.79475637106479",
      "category": "satellite"
    },
    {
      "id": "60452",
      "name": "LEGION 3",
      "noradId": 60452,
      "line1": "1 60452U 24146A   26171.42555762  .00003536  00000+0  19408-3 0  9998",
      "line2": "2 60452  45.0028  13.1867 0008055 188.7532 171.3207 15.16059013102517",
      "category": "satellite"
    },
    {
      "id": "60453",
      "name": "LEGION 4",
      "noradId": 60453,
      "line1": "1 60453U 24146B   26171.29688795  .00003587  00000+0  19653-3 0  9995",
      "line2": "2 60453  45.0017 105.7874 0013480 324.8703  35.1285 15.16053228101348",
      "category": "satellite"
    },
    {
      "id": "60989",
      "name": "SENTINEL-2C",
      "noradId": 60989,
      "line1": "1 60989U 24157A   26171.45925764  .00000070  00000+0  43396-4 0  9995",
      "line2": "2 60989  98.5692 246.1950 0000995  83.4152 276.7144 14.30818579 93454",
      "category": "satellite"
    },
    {
      "id": "61735",
      "name": "IONOSFERA-M 1",
      "noradId": 61735,
      "line1": "1 61735U 24199A   26171.42878397  .00000023  00000+0  29904-4 0  9994",
      "line2": "2 61735  98.7170  44.5668 0002042 106.2287 253.9115 14.22754851128166",
      "category": "satellite"
    },
    {
      "id": "61736",
      "name": "IONOSFERA-M 2",
      "noradId": 61736,
      "line1": "1 61736U 24199B   26171.39274542  .00000024  00000+0  30228-4 0  9995",
      "line2": "2 61736  98.7169  44.4417 0000914  38.0352 322.0890 14.22758106131289",
      "category": "satellite"
    },
    {
      "id": "62725",
      "name": "PRSC-EO1",
      "noradId": 62725,
      "line1": "1 62725U 25012A   26172.21366948  .00005647  00000+0  28377-3 0  9990",
      "line2": "2 62725  97.4220 244.5950 0005055 234.4112 125.6651 15.17650369 78801",
      "category": "satellite"
    },
    {
      "id": "63772",
      "name": "BIOMASS",
      "noradId": 63772,
      "line1": "1 63772U 25090A   26171.44261398  .00000148  00000+0  34623-4 0  9999",
      "line2": "2 63772  98.0744 358.7127 0001448  95.6178 264.5192 14.67536927 61168",
      "category": "satellite"
    },
    {
      "id": "64694",
      "name": "GOSAT-GW (IBUKI GW)",
      "noradId": 64694,
      "line1": "1 64694U 25141A   26172.14467457  .00000354  00000+0  70804-4 0  9992",
      "line2": "2 64694  98.0573 109.3973 0001438  84.1360 276.0008 14.67554657 52429",
      "category": "satellite"
    }
  ]
}