OBJECT_NAME,OBJECT_ID,EPOCH,MEAN_MOTION,ECCENTRICITY,INCLINATION,RA_OF_ASC_NODE,ARG_OF_PERICENTER,MEAN_ANOMALY,EPHEMERIS_TYPE,CLASSIFICATION_TYPE,NORAD_CAT_ID,ELEMENT_SET_NO,REV_AT_EPOCH,BSTAR,MEAN_MOTION_DOT,MEAN_MOTION_DDOT
KAZSTSAT,2018-099AB,2026-06-20T00:47:25.220256,14.99874388,.00086028,97.4272,202.8318,62.2449,297.9646,0,U,43783,999,41173,.1194559E-3,.1425E-4,0
SAUDISAT 5A,2018-102A,2026-06-21T05:23:48.360192,15.28082744,.0011191,97.3063,233.7282,116.7520,243.4866,0,U,43831,999,41629,.1616E-3,.4359E-4,0
SAUDISAT 5B,2018-102C,2026-06-21T04:15:41.261760,15.28337228,.0011882,97.3171,236.7587,118.9332,241.3101,0,U,43833,999,41640,.15628E-3,.4247E-4,0
GAOFEN-10R,2019-066A,2026-06-21T04:50:47.829408,14.83067895,.0006885,98.0503,125.8105,116.9192,243.2725,0,U,44622,999,36297,.10651E-3,.812E-5,0
CARTOSAT-3,2019-081A,2026-06-21T04:11:53.985696,15.19305773,.0013546,97.4300,233.9780,136.0390,224.1925,0,U,44804,999,36407,.18136E-3,.3769E-4,0
GAOFEN-12 01,2019-082A,2026-06-21T04:51:42.524064,14.80461093,.0002143,97.8101,178.4761,65.9936,294.1501,0,U,44819,999,35468,.40772E-4,.261E-5,0
CSG-1,2019-092A,2026-06-21T04:04:04.101888,14.82155772,.0001452,97.8890,355.7142,89.5535,270.5845,0,U,44873,999,35206,.41312E-4,.277E-5,0
NEMO-HD,2020-061F,2026-06-21T03:30:41.255712,15.44662674,.0002114,97.1915,234.0595,78.3213,281.8273,0,U,46277,999,32259,.19341E-3,.8929E-4,0
SENTINEL-6A,2020-086A,2026-06-20T06:52:41.968704,12.80930002,.0007932,66.0398,128.6148,270.1789,89.8317,0,U,46984,999,26072,.86498E-4,-.41E-6,0
CAS500-1,2021-022A,2026-06-21T05:02:25.322784,15.20170489,.0003224,97.3894,67.3818,278.9562,81.1308,0,U,47932,999,29137,.22448E-3,.4792E-4,0
GAOFEN-12 02,2021-026A,2026-06-21T05:08:15.170208,14.80298644,.0003999,97.9922,170.3782,205.4306,154.6709,0,U,48079,999,28235,.38229E-4,.238E-5,0
PLEIADES NEO 3,2021-034A,2026-06-21T04:04:50.657664,14.81672808,.0001361,97.8926,246.8795,92.8090,267.3278,0,U,48268,999,27824,.1349E-3,.101E-4,0
PLEIADES NEO 4,2021-073E,2026-06-21T04:53:26.796768,14.81668144,.0001336,97.8929,246.9091,88.5035,271.6331,0,U,49070,999,26196,.3191E-4,.199E-5,0
LANDSAT 9,2021-088A,2026-06-20T10:10:35.291712,14.57098947,.0001329,98.2280,241.5622,85.1905,274.9445,0,U,49260,999,25147,.62312E-4,.235E-5,0
CSG-2,2022-008A,2026-06-21T04:52:38.375616,14.82158488,.0001487,97.8889,355.7420,89.8329,270.3055,0,U,51444,999,23718,.65131E-4,.466E-5,0
GAOFEN-12 03,2022-069A,2026-06-21T04:15:00.545760,14.80039682,.0002192,97.8270,59.9462,100.2220,259.9240,0,U,52912,999,21520,.11037E-3,.785E-5,0
SWOT,2022-173A,2026-06-20T10:02:00.348576,14.00169969,.0000286,77.6105,30.9486,91.4251,268.6933,0,U,54754,999,17960,.52339E-4,.75E-6,0
GAOFEN-12 04,2023-123A,2026-06-21T04:38:15.687168,14.80234993,.0001784,97.9120,90.1536,81.7499,278.3915,0,U,57654,999,15322,.98615E-4,.698E-5,0
PARS 1,2024-039Q,2026-06-21T04:46:02.509824,15.45796245,.0011527,97.4828,153.2446,99.7581,260.4970,0,U,59065,999,12926,.19486E-3,.9369E-4,0
RESURS-P 4,2024-061A,2026-06-21T04:21:46.707840,15.32150166,.0002467,97.2751,120.0107,121.9089,238.2394,0,U,59371,999,12437,.78569E-4,.2363E-4,0
LEGION 1,2024-081A,2026-06-20T11:02:07.145088,15.16685063,.0009187,97.5015,249.2820,6.7145,353.4210,0,U,59625,999,11803,.1373E-3,.2623E-4,0
LEGION 2,2024-081B,2026-06-20T11:45:21.355200,15.16663670,.0010476,97.5015,249.4091,331.4775,28.5884,0,U,59626,999,11804,.14962E-3,.2864E-4,0
ALOS-4 (DAICHI-4),2024-123A,2026-06-21T05:11:44.698848,14.79475637,.0001631,97.9248,269.3339,96.5969,263.5428,0,U,60182,999,10647,.1409E-3,.1001E-4,0
LEGION 3,2024-146A,2026-06-20T10:12:48.178368,15.16059013,.0008055,45.0028,13.1867,188.7532,171.3207,0,U,60452,999,10251,.19408E-3,.3536E-4,0
LEGION 4,2024-146B,2026-06-20T07:07:31.118880,15.16053228,.001348,45.0017,105.7874,324.8703,35.1285,0,U,60453,999,10134,.19653E-3,.3587E-4,0
SENTINEL-2C,2024-157A,2026-06-20T11:01:19.860096,14.30818579,.0000995,98.5692,246.1950,83.4152,276.7144,0,U,60989,999,9345,.43396E-4,.7E-6,0
IONOSFERA-M 1,2024-199A,2026-06-20T10:17:26.935008,14.22754851,.0002042,98.7170,44.5668,106.2287,253.9115,0,U,61735,999,12816,.29904E-4,.23E-6,0
IONOSFERA-M 2,2024-199B,2026-06-20T09:25:33.204288,14.22758106,.0000914,98.7169,44.4417,38.0352,322.0890,0,U,61736,999,13128,.30228E-4,.24E-6,0
PRSC-EO1,2025-012A,2026-06-21T05:07:41.043072,15.17650369,.0005055,97.4220,244.5950,234.4112,125.6651,0,U,62725,999,7880,.28377E-3,.5647E-4,0
BIOMASS,2025-090A,2026-06-20T10:37:21.847872,14.67536927,.0001448,98.0744,358.7127,95.6178,264.5192,0,U,63772,999,6116,.34623E-4,.148E-5,0
GOSAT-GW (IBUKI GW),2025-141A,2026-06-21T03:28:19.882848,14.67554657,.0001438,98.0573,109.3973,84.1360,276.0008,0,U,64694,999,5242,.70804E-4,.354E-5,0
